{
  "type": "FeatureCollection",
  "features": [
    {
      "type": "Feature",
      "properties": {
        "norad_id": 67062,
        "name": "HULIANWANG DIGUI 16D",
        "group": "last-30-days",
        "lat": -38.95200368902886,
        "lon": -141.93502742367724,
        "alt_km": 801.8148367317071,
        "timestamp": "2025-12-16T17:51:09.663823+00:00",
        "meta_object_name": "HULIANWANG DIGUI 16D",
        "meta_object_id": "2025-295D",
        "meta_epoch": "2025-12-12T05:06:24.477120",
        "meta_mean_motion": 14.25916921,
        "meta_eccentricity": 0.00124974,
        "meta_inclination": 50.0052,
        "meta_ra_of_asc_node": 14.4731,
        "meta_arg_of_pericenter": 251.2247,
        "meta_mean_anomaly": 108.7311,
        "meta_ephemeris_type": 0,
        "meta_classification_type": "U",
        "meta_norad_cat_id": 67062,
        "meta_element_set_no": 999,
        "meta_rev_at_epoch": 4,
        "meta_bstar": 3.753899e-06,
        "meta_mean_motion_dot": -1.51e-06,
        "meta_mean_motion_ddot": 0,
        "tle_line1": "1 67062U 25295D   25346.21278330 -.00000151  00000+0  37539-5 0  9999",
        "tle_line2": "2 67062  50.0052  14.4731 0012497 251.2247 108.7311 14.25916921    46"
      },
      "geometry": {
        "type": "Point",
        "coordinates": [
          -141.93502742367724,
          -38.95200368902886
        ]
      }
    },
    {
      "type": "Feature",
      "properties": {
        "norad_id": 67064,
        "name": "HULIANWANG DIGUI 16F",
        "group": "last-30-days",
        "lat": -46.852521744859885,
        "lon": -121.12333335650138,
        "alt_km": 795.7864498565004,
        "timestamp": "2025-12-16T17:51:09.663835+00:00",
        "meta_object_name": "HULIANWANG DIGUI 16F",
        "meta_object_id": "2025-295F",
        "meta_epoch": "2025-12-12T05:06:22.414752",
        "meta_mean_motion": 14.26957674,
        "meta_eccentricity": 0.00149026,
        "meta_inclination": 50.0027,
        "meta_ra_of_asc_node": 14.4596,
        "meta_arg_of_pericenter": 247.8107,
        "meta_mean_anomaly": 112.1227,
        "meta_ephemeris_type": 0,
        "meta_classification_type": "U",
        "meta_norad_cat_id": 67064,
        "meta_element_set_no": 999,
        "meta_rev_at_epoch": 4,
        "meta_bstar": 2.6251967e-05,
        "meta_mean_motion_dot": -9.6e-07,
        "meta_mean_motion_ddot": 0,
        "tle_line1": "1 67064U 25295F   25346.21275943 -.00000096  00000+0  26252-4 0  9995",
        "tle_line2": "2 67064  50.0027  14.4596 0014902 247.8107 112.1227 14.26957674    44"
      },
      "geometry": {
        "type": "Point",
        "coordinates": [
          -121.12333335650138,
          -46.852521744859885
        ]
      }
    },
    {
      "type": "Feature",
      "properties": {
        "norad_id": 67066,
        "name": "HULIANWANG DIGUI 16H",
        "group": "last-30-days",
        "lat": -43.42726761762002,
        "lon": -132.0767231716137,
        "alt_km": 800.1951512076876,
        "timestamp": "2025-12-16T17:51:09.663845+00:00",
        "meta_object_name": "HULIANWANG DIGUI 16H",
        "meta_object_id": "2025-295H",
        "meta_epoch": "2025-12-12T05:06:20.088000",
        "meta_mean_motion": 14.26429655,
        "meta_eccentricity": 0.00114905,
        "meta_inclination": 50.0029,
        "meta_ra_of_asc_node": 14.4606,
        "meta_arg_of_pericenter": 248.6611,
        "meta_mean_anomaly": 111.3077,
        "meta_ephemeris_type": 0,
        "meta_classification_type": "U",
        "meta_norad_cat_id": 67066,
        "meta_element_set_no": 999,
        "meta_rev_at_epoch": 4,
        "meta_bstar": 2.4353642e-05,
        "meta_mean_motion_dot": -1.01e-06,
        "meta_mean_motion_ddot": 0,
        "tle_line1": "1 67066U 25295H   25346.21273250 -.00000101  00000+0  24354-4 0  9994",
        "tle_line2": "2 67066  50.0029  14.4606 0011490 248.6611 111.3077 14.26429655    45"
      },
      "geometry": {
        "type": "Point",
        "coordinates": [
          -132.0767231716137,
          -43.42726761762002
        ]
      }
    },
    {
      "type": "Feature",
      "properties": {
        "norad_id": 67067,
        "name": "HULIANWANG DIGUI 16J",
        "group": "last-30-days",
        "lat": -42.9464497258016,
        "lon": -133.3026822676894,
        "alt_km": 801.3578855455326,
        "timestamp": "2025-12-16T17:51:09.663855+00:00",
        "meta_object_name": "HULIANWANG DIGUI 16J",
        "meta_object_id": "2025-295J",
        "meta_epoch": "2025-12-12T05:06:18.555264",
        "meta_mean_motion": 14.26361638,
        "meta_eccentricity": 0.00104901,
        "meta_inclination": 50.0044,
        "meta_ra_of_asc_node": 14.4694,
        "meta_arg_of_pericenter": 253.0387,
        "meta_mean_anomaly": 106.9378,
        "meta_ephemeris_type": 0,
        "meta_classification_type": "U",
        "meta_norad_cat_id": 67067,
        "meta_element_set_no": 999,
        "meta_rev_at_epoch": 4,
        "meta_bstar": 6.475965e-06,
        "meta_mean_motion_dot": -1.45e-06,
        "meta_mean_motion_ddot": 0,
        "tle_line1": "1 67067U 25295J   25346.21271476 -.00000145  00000+0  64760-5 0  9997",
        "tle_line2": "2 67067  50.0044  14.4694 0010490 253.0387 106.9378 14.26361638    49"
      },
      "geometry": {
        "type": "Point",
        "coordinates": [
          -133.3026822676894,
          -42.9464497258016
        ]
      }
    },
    {
      "type": "Feature",
      "properties": {
        "norad_id": 67069,
        "name": "2025-296A",
        "group": "last-30-days",
        "lat": 25.817134142829595,
        "lon": -134.64453468858872,
        "alt_km": 510.5735034515592,
        "timestamp": "2025-12-16T17:51:09.663867+00:00",
        "meta_object_name": "2025-296A",
        "meta_object_id": "2025-296A",
        "meta_epoch": "2025-12-15T23:51:49.221216",
        "meta_mean_motion": 15.16900751,
        "meta_eccentricity": 0.00142937,
        "meta_inclination": 41.3517,
        "meta_ra_of_asc_node": 83.0038,
        "meta_arg_of_pericenter": 45.3752,
        "meta_mean_anomaly": 314.8233,
        "meta_ephemeris_type": 0,
        "meta_classification_type": "U",
        "meta_norad_cat_id": 67069,
        "meta_element_set_no": 999,
        "meta_rev_at_epoch": 45,
        "meta_bstar": 0.00044059878,
        "meta_mean_motion_dot": 8.677e-05,
        "meta_mean_motion_ddot": 0,
        "tle_line1": "1 67069U 25296A   25349.99431969  .00008677  00000+0  44060-3 0  9999",
        "tle_line2": "2 67069  41.3517  83.0038 0014293  45.3752 314.8233 15.16900751   456"
      },
      "geometry": {
        "type": "Point",
        "coordinates": [
          -134.64453468858872,
          25.817134142829595
        ]
      }
    },
    {
      "type": "Feature",
      "properties": {
        "norad_id": 67070,
        "name": "2025-296B",
        "group": "last-30-days",
        "lat": 23.41487847976166,
        "lon": -130.77215059762779,
        "alt_km": 510.9879690998396,
        "timestamp": "2025-12-16T17:51:09.663880+00:00",
        "meta_object_name": "2025-296B",
        "meta_object_id": "2025-296B",
        "meta_epoch": "2025-12-15T14:22:08.198400",
        "meta_mean_motion": 15.17174125,
        "meta_eccentricity": 0.00160035,
        "meta_inclination": 41.3531,
        "meta_ra_of_asc_node": 85.2597,
        "meta_arg_of_pericenter": 42.3814,
        "meta_mean_anomaly": 317.8241,
        "meta_ephemeris_type": 0,
        "meta_classification_type": "U",
        "meta_norad_cat_id": 67070,
        "meta_element_set_no": 999,
        "meta_rev_at_epoch": 38,
        "meta_bstar": 8.1548791e-05,
        "meta_mean_motion_dot": 1.448e-05,
        "meta_mean_motion_ddot": 0,
        "tle_line1": "1 67070U 25296B   25349.59870600  .00001448  00000+0  81549-4 0  9999",
        "tle_line2": "2 67070  41.3531  85.2597 0016003  42.3814 317.8241 15.17174125   388"
      },
      "geometry": {
        "type": "Point",
        "coordinates": [
          -130.77215059762779,
          23.41487847976166
        ]
      }
    },
    {
      "type": "Feature",
      "properties": {
        "norad_id": 67071,
        "name": "KZ-11 R/B",
        "group": "last-30-days",
        "lat": 17.04825971743331,
        "lon": 100.87241323397025,
        "alt_km": 260.36115326095387,
        "timestamp": "2025-12-16T17:51:09.663890+00:00",
        "meta_object_name": "KZ-11 R/B",
        "meta_object_id": "2025-296C",
        "meta_epoch": "2025-12-15T17:09:47.995776",
        "meta_mean_motion": 14.58622367,
        "meta_eccentricity": 0.07956316,
        "meta_inclination": 41.344,
        "meta_ra_of_asc_node": 85.9238,
        "meta_arg_of_pericenter": 336.179,
        "meta_mean_anomaly": 20.4018,
        "meta_ephemeris_type": 0,
        "meta_classification_type": "U",
        "meta_norad_cat_id": 67071,
        "meta_element_set_no": 999,
        "meta_rev_at_epoch": 39,
        "meta_bstar": 0.00044822831,
        "meta_mean_motion_dot": 0.04090434,
        "meta_mean_motion_ddot": 5.284999e-06,
        "tle_line1": "1 67071U 25296C   25349.71513884  .04090434  52850-5  44823-3 0  9998",
        "tle_line2": "2 67071  41.3440  85.9238 0795631 336.1790  20.4018 14.58622367   395"
      },
      "geometry": {
        "type": "Point",
        "coordinates": [
          100.87241323397025,
          17.04825971743331
        ]
      }
    }
  ]
}